CZ-3B R/B               
1 66587U 25269B   25327.51390516  .00010320 -91384-6  49597-3 0  9990
2 66587  51.3768 174.0599 7525341 225.2938  41.2116  2.01516013    67
SHENZHOU-22             
1 66645U 25272A   25331.84998818  .00016597  00000+0  21579-3 0  9998
2 66645  41.4664 107.0411 0010719 283.2651  76.6991 15.58344779261700
CZ-2F R/B               
1 66646U 25272B   25330.47076975  .00449059  75676-5  29319-3 0  9998
2 66646  41.4431 114.9009 0121079 133.7676 227.3272 16.01945612   217
COSMOS 2597 (RODNIK-S *)
1 66647U 25273A   25332.21499124  .00000004  00000+0 -43411-4 0  9996
2 66647  82.4977 295.4700 0008293 322.9250  37.1255 12.41951135   331
COSMOS 2598 (RODNIK-S *)
1 66648U 25273B   25332.21436442 -.00000023  00000+0 -23864-3 0  9992
2 66648  82.5018 295.4763 0008369 311.7230  48.3132 12.42253401   336
COSMOS 2599 (RODNIK-S *)
1 66649U 25273C   25332.21557072 -.00000039  00000+0 -35670-3 0  9991
2 66649  82.5018 295.4772 0008528 333.0243  27.0391 12.41671994   336
