CCSDS_OMM_VERS = 2.0
CREATION_DATE  = 
ORIGINATOR     = 

OBJECT_NAME    = CZ-3B R/B
OBJECT_ID      = 2025-269B
CENTER_NAME    = EARTH
REF_FRAME      = TEME
TIME_SYSTEM    = UTC
MEAN_ELEMENT_THEORY = SGP/SGP4

EPOCH          = 2025-11-23T12:20:01.405824
MEAN_MOTION    = 2.01516013
ECCENTRICITY   = .75253415
INCLINATION    = 51.3768
RA_OF_ASC_NODE = 174.0599
ARG_OF_PERICENTER = 225.2938
MEAN_ANOMALY   = 41.2116

EPHEMERIS_TYPE = 0
CLASSIFICATION_TYPE = U
NORAD_CAT_ID   = 66587
ELEMENT_SET_NO = 999
REV_AT_EPOCH   = 6
BSTAR          = .49596604E-3
MEAN_MOTION_DOT = .1032E-3
MEAN_MOTION_DDOT = -.913844E-6

CCSDS_OMM_VERS = 2.0
CREATION_DATE  = 
ORIGINATOR     = 

OBJECT_NAME    = SHENZHOU-22
OBJECT_ID      = 2025-272A
CENTER_NAME    = EARTH
REF_FRAME      = TEME
TIME_SYSTEM    = UTC
MEAN_ELEMENT_THEORY = SGP/SGP4

EPOCH          = 2025-11-27T20:23:58.978752
MEAN_MOTION    = 15.58344779
ECCENTRICITY   = .00107194
INCLINATION    = 41.4664
RA_OF_ASC_NODE = 107.0411
ARG_OF_PERICENTER = 283.2651
MEAN_ANOMALY   = 76.6991

EPHEMERIS_TYPE = 0
CLASSIFICATION_TYPE = U
NORAD_CAT_ID   = 66645
ELEMENT_SET_NO = 999
REV_AT_EPOCH   = 26170
BSTAR          = .21578948E-3
MEAN_MOTION_DOT = .16597E-3
MEAN_MOTION_DDOT = 0

CCSDS_OMM_VERS = 2.0
CREATION_DATE  = 
ORIGINATOR     = 

OBJECT_NAME    = CZ-2F R/B
OBJECT_ID      = 2025-272B
CENTER_NAME    = EARTH
REF_FRAME      = TEME
TIME_SYSTEM    = UTC
MEAN_ELEMENT_THEORY = SGP/SGP4

EPOCH          = 2025-11-26T11:17:54.506400
MEAN_MOTION    = 16.01945612
ECCENTRICITY   = .01210796
INCLINATION    = 41.4431
RA_OF_ASC_NODE = 114.9009
ARG_OF_PERICENTER = 133.7676
MEAN_ANOMALY   = 227.3272

EPHEMERIS_TYPE = 0
CLASSIFICATION_TYPE = U
NORAD_CAT_ID   = 66646
ELEMENT_SET_NO = 999
REV_AT_EPOCH   = 21
BSTAR          = .29319366E-3
MEAN_MOTION_DOT = .449059E-2
MEAN_MOTION_DDOT = .7567612E-5

CCSDS_OMM_VERS = 2.0
CREATION_DATE  = 
ORIGINATOR     = 

OBJECT_NAME    = COSMOS 2597 (RODNIK-S 22)
OBJECT_ID      = 2025-273A
CENTER_NAME    = EARTH
REF_FRAME      = TEME
TIME_SYSTEM    = UTC
MEAN_ELEMENT_THEORY = SGP/SGP4

EPOCH          = 2025-11-28T05:09:35.243136
MEAN_MOTION    = 12.41951135
ECCENTRICITY   = .0008293
INCLINATION    = 82.4977
RA_OF_ASC_NODE = 295.4700
ARG_OF_PERICENTER = 322.9250
MEAN_ANOMALY   = 37.1255

EPHEMERIS_TYPE = 0
CLASSIFICATION_TYPE = U
NORAD_CAT_ID   = 66647
ELEMENT_SET_NO = 999
REV_AT_EPOCH   = 33
BSTAR          = -.43411E-4
MEAN_MOTION_DOT = .4E-7
MEAN_MOTION_DDOT = 0

CCSDS_OMM_VERS = 2.0
CREATION_DATE  = 
ORIGINATOR     = 

OBJECT_NAME    = COSMOS 2598 (RODNIK-S 23)
OBJECT_ID      = 2025-273B
CENTER_NAME    = EARTH
REF_FRAME      = TEME
TIME_SYSTEM    = UTC
MEAN_ELEMENT_THEORY = SGP/SGP4

EPOCH          = 2025-11-28T05:08:41.085888
MEAN_MOTION    = 12.42253401
ECCENTRICITY   = .0008369
INCLINATION    = 82.5018
RA_OF_ASC_NODE = 295.4763
ARG_OF_PERICENTER = 311.7230
MEAN_ANOMALY   = 48.3132

EPHEMERIS_TYPE = 0
CLASSIFICATION_TYPE = U
NORAD_CAT_ID   = 66648
ELEMENT_SET_NO = 999
REV_AT_EPOCH   = 33
BSTAR          = -.23864E-3
MEAN_MOTION_DOT = -.23E-6
MEAN_MOTION_DDOT = 0

CCSDS_OMM_VERS = 2.0
CREATION_DATE  = 
ORIGINATOR     = 

OBJECT_NAME    = COSMOS 2599 (RODNIK-S 24)
OBJECT_ID      = 2025-273C
CENTER_NAME    = EARTH
REF_FRAME      = TEME
TIME_SYSTEM    = UTC
MEAN_ELEMENT_THEORY = SGP/SGP4

EPOCH          = 2025-11-28T05:10:25.310208
MEAN_MOTION    = 12.41671994
ECCENTRICITY   = .0008528
INCLINATION    = 82.5018
RA_OF_ASC_NODE = 295.4772
ARG_OF_PERICENTER = 333.0243
MEAN_ANOMALY   = 27.0391

EPHEMERIS_TYPE = 0
CLASSIFICATION_TYPE = U
NORAD_CAT_ID   = 66649
ELEMENT_SET_NO = 999
REV_AT_EPOCH   = 33
BSTAR          = -.3567E-3
MEAN_MOTION_DOT = -.39E-6
MEAN_MOTION_DDOT = 0

